[{"OBJECT_NAME":"SILVERSAT","OBJECT_ID":"1998-067XV","EPOCH":"2026-03-09T06:21:04.624704","MEAN_MOTION":15.72057374,"ECCENTRICITY":0.00055278,"INCLINATION":51.6252,"RA_OF_ASC_NODE":67.052,"ARG_OF_PERICENTER":73.9744,"MEAN_ANOMALY":286.1863,"EPHEMERIS_TYPE":0,"CLASSIFICATION_TYPE":"U","NORAD_CAT_ID":66909,"ELEMENT_SET_NO":999,"REV_AT_EPOCH":1512,"BSTAR":0.0015444738,"MEAN_MOTION_DOT":0.00211631,"MEAN_MOTION_DDOT":0},{"OBJECT_NAME":"STARLINK-36626","OBJECT_ID":"2026-018Q","EPOCH":"2026-03-09T17:10:19.772832","MEAN_MOTION":15.75197664,"ECCENTRICITY":0.00010571,"INCLINATION":97.2834,"RA_OF_ASC_NODE":134.5546,"ARG_OF_PERICENTER":90.6653,"MEAN_ANOMALY":269.4733,"EPHEMERIS_TYPE":0,"CLASSIFICATION_TYPE":"U","NORAD_CAT_ID":67603,"ELEMENT_SET_NO":999,"REV_AT_EPOCH":731,"BSTAR":0.001426661,"MEAN_MOTION_DOT":0.00218266,"MEAN_MOTION_DDOT":0}]
