SILVERSAT               
1 66909U 98067XV  26068.26463686  .00211631  00000+0  15445-2 0  9997
2 66909  51.6252  67.0520 0005527  73.9744 286.1863 15.72057374 15120
STARLINK-36626          
1 67603U 26018Q   26068.71550663  .00218266  00000+0  14267-2 0  9990
2 67603  97.2834 134.5546 0001057  90.6653 269.4733 15.75197664  7313
